{
  "type": "FeatureCollection",
  "features": [
    {
      "type": "Feature",
      "properties": {
        "norad_id": 36061,
        "name": "COSMOS 2251 DEB",
        "group": "cosmos-2251-debris",
        "lat": 0.9752375304057205,
        "lon": -6.613726805303418,
        "alt_km": 776.6101369755224,
        "timestamp": "2025-12-16T08:59:43.558737+00:00",
        "meta_object_name": "COSMOS 2251 DEB",
        "meta_object_id": "1993-036AXY",
        "meta_epoch": "2025-12-15T17:55:08.095872",
        "meta_mean_motion": 14.33713146,
        "meta_eccentricity": 0.00367991,
        "meta_inclination": 74.0242,
        "meta_ra_of_asc_node": 354.2562,
        "meta_arg_of_pericenter": 81.2237,
        "meta_mean_anomaly": 279.3079,
        "meta_ephemeris_type": 0,
        "meta_classification_type": "U",
        "meta_norad_cat_id": 36061,
        "meta_element_set_no": 999,
        "meta_rev_at_epoch": 65147,
        "meta_bstar": 0.00027590632,
        "meta_mean_motion_dot": 7.46e-06,
        "meta_mean_motion_ddot": 0,
        "tle_line1": "1 36061U 93036AXY 25349.74662148  .00000746  00000+0  27591-3 0  9991",
        "tle_line2": "2 36061  74.0242 354.2562 0036799  81.2237 279.3079 14.33713146651474"
      },
      "geometry": {
        "type": "Point",
        "coordinates": [
          -6.613726805303418,
          0.9752375304057205
        ]
      }
    },
    {
      "type": "Feature",
      "properties": {
        "norad_id": 36073,
        "name": "COSMOS 2251 DEB",
        "group": "cosmos-2251-debris",
        "lat": 60.974213691599395,
        "lon": 104.8324661563486,
        "alt_km": 769.3550876460458,
        "timestamp": "2025-12-16T08:59:43.558747+00:00",
        "meta_object_name": "COSMOS 2251 DEB",
        "meta_object_id": "1993-036AYL",
        "meta_epoch": "2025-12-14T06:16:10.983072",
        "meta_mean_motion": 14.34955439,
        "meta_eccentricity": 0.00239275,
        "meta_inclination": 74.0321,
        "meta_ra_of_asc_node": 319.7693,
        "meta_arg_of_pericenter": 27.306,
        "meta_mean_anomaly": 332.9344,
        "meta_ephemeris_type": 0,
        "meta_classification_type": "U",
        "meta_norad_cat_id": 36073,
        "meta_element_set_no": 999,
        "meta_rev_at_epoch": 70229,
        "meta_bstar": 0.0003171948,
        "meta_mean_motion_dot": 8.79e-06,
        "meta_mean_motion_ddot": 0,
        "tle_line1": "1 36073U 93036AYL 25348.26123823  .00000879  00000+0  31719-3 0  9996",
        "tle_line2": "2 36073  74.0321 319.7693 0023927  27.3060 332.9344 14.34955439702292"
      },
      "geometry": {
        "type": "Point",
        "coordinates": [
          104.8324661563486,
          60.974213691599395
        ]
      }
    },
    {
      "type": "Feature",
      "properties": {
        "norad_id": 36074,
        "name": "COSMOS 2251 DEB",
        "group": "cosmos-2251-debris",
        "lat": 5.982314662287444,
        "lon": -24.555314498725654,
        "alt_km": 732.5528254571736,
        "timestamp": "2025-12-16T08:59:43.558758+00:00",
        "meta_object_name": "COSMOS 2251 DEB",
        "meta_object_id": "1993-036AYM",
        "meta_epoch": "2025-12-04T07:35:54.379968",
        "meta_mean_motion": 14.43651509,
        "meta_eccentricity": 0.0041318,
        "meta_inclination": 73.9929,
        "meta_ra_of_asc_node": 356.1864,
        "meta_arg_of_pericenter": 90.6412,
        "meta_mean_anomaly": 269.9479,
        "meta_ephemeris_type": 0,
        "meta_classification_type": "U",
        "meta_norad_cat_id": 36074,
        "meta_element_set_no": 999,
        "meta_rev_at_epoch": 85788,
        "meta_bstar": 0.0017767,
        "meta_mean_motion_dot": 6.071e-05,
        "meta_mean_motion_ddot": 0,
        "tle_line1": "1 36074U 93036AYM 25338.31660162  .00006071  00000+0  17767-2 0  9990",
        "tle_line2": "2 36074  73.9929 356.1864 0041318  90.6412 269.9479 14.43651509857883"
      },
      "geometry": {
        "type": "Point",
        "coordinates": [
          -24.555314498725654,
          5.982314662287444
        ]
      }
    },
    {
      "type": "Feature",
      "properties": {
        "norad_id": 36366,
        "name": "COSMOS 2251 DEB",
        "group": "cosmos-2251-debris",
        "lat": 14.403495399925907,
        "lon": 82.22444945939452,
        "alt_km": 821.3430413754768,
        "timestamp": "2025-12-16T08:59:43.558768+00:00",
        "meta_object_name": "COSMOS 2251 DEB",
        "meta_object_id": "1993-036AYT",
        "meta_epoch": "2025-12-15T12:07:14.820096",
        "meta_mean_motion": 14.33419941,
        "meta_eccentricity": 0.00905187,
        "meta_inclination": 74.0664,
        "meta_ra_of_asc_node": 268.0186,
        "meta_arg_of_pericenter": 295.7644,
        "meta_mean_anomaly": 63.4187,
        "meta_ephemeris_type": 0,
        "meta_classification_type": "U",
        "meta_norad_cat_id": 36366,
        "meta_element_set_no": 999,
        "meta_rev_at_epoch": 86328,
        "meta_bstar": 0.0011191186,
        "meta_mean_motion_dot": 3.208e-05,
        "meta_mean_motion_ddot": 0,
        "tle_line1": "1 36366U 93036AYT 25349.50503264  .00003208  00000+0  11191-2 0  9990",
        "tle_line2": "2 36366  74.0664 268.0186 0090518 295.7644  63.4187 14.33419941863289"
      },
      "geometry": {
        "type": "Point",
        "coordinates": [
          82.22444945939452,
          14.403495399925907
        ]
      }
    },
    {
      "type": "Feature",
      "properties": {
        "norad_id": 36367,
        "name": "COSMOS 2251 DEB",
        "group": "cosmos-2251-debris",
        "lat": -49.83379704847425,
        "lon": -154.44507287330245,
        "alt_km": 758.8264618444127,
        "timestamp": "2025-12-16T08:59:43.558778+00:00",
        "meta_object_name": "COSMOS 2251 DEB",
        "meta_object_id": "1993-036AYU",
        "meta_epoch": "2025-12-14T22:36:07.424640",
        "meta_mean_motion": 13.8634274,
        "meta_eccentricity": 0.02622424,
        "meta_inclination": 74.1011,
        "meta_ra_of_asc_node": 227.7062,
        "meta_arg_of_pericenter": 300.1243,
        "meta_mean_anomaly": 57.4125,
        "meta_ephemeris_type": 0,
        "meta_classification_type": "U",
        "meta_norad_cat_id": 36367,
        "meta_element_set_no": 999,
        "meta_rev_at_epoch": 57560,
        "meta_bstar": 0.0012671505,
        "meta_mean_motion_dot": 1.897e-05,
        "meta_mean_motion_ddot": 0,
        "tle_line1": "1 36367U 93036AYU 25348.94175260  .00001897  00000+0  12672-2 0  9996",
        "tle_line2": "2 36367  74.1011 227.7062 0262242 300.1243  57.4125 13.86342740575603"
      },
      "geometry": {
        "type": "Point",
        "coordinates": [
          -154.44507287330245,
          -49.83379704847425
        ]
      }
    },
    {
      "type": "Feature",
      "properties": {
        "norad_id": 36369,
        "name": "COSMOS 2251 DEB",
        "group": "cosmos-2251-debris",
        "lat": 10.799764594484184,
        "lon": -119.48974580829741,
        "alt_km": 643.553589583209,
        "timestamp": "2025-12-16T08:59:43.558788+00:00",
        "meta_object_name": "COSMOS 2251 DEB",
        "meta_object_id": "1993-036AYW",
        "meta_epoch": "2025-12-13T11:48:09.562176",
        "meta_mean_motion": 14.73593845,
        "meta_eccentricity": 0.00111215,
        "meta_inclination": 74.0315,
        "meta_ra_of_asc_node": 69.2624,
        "meta_arg_of_pericenter": 147.3699,
        "meta_mean_anomaly": 212.8163,
        "meta_ephemeris_type": 0,
        "meta_classification_type": "U",
        "meta_norad_cat_id": 36369,
        "meta_element_set_no": 999,
        "meta_rev_at_epoch": 85933,
        "meta_bstar": 0.0023523772,
        "meta_mean_motion_dot": 0.00015337,
        "meta_mean_motion_ddot": 0,
        "tle_line1": "1 36369U 93036AYW 25347.49177734  .00015337  00000+0  23524-2 0  9997",
        "tle_line2": "2 36369  74.0315  69.2624 0011121 147.3699 212.8163 14.73593845859333"
      },
      "geometry": {
        "type": "Point",
        "coordinates": [
          -119.48974580829741,
          10.799764594484184
        ]
      }
    },
    {
      "type": "Feature",
      "properties": {
        "norad_id": 36371,
        "name": "COSMOS 2251 DEB",
        "group": "cosmos-2251-debris",
        "lat": 37.72602279907575,
        "lon": 167.28459788088114,
        "alt_km": 661.7865607002441,
        "timestamp": "2025-12-16T08:59:43.558799+00:00",
        "meta_object_name": "COSMOS 2251 DEB",
        "meta_object_id": "1993-036AYY",
        "meta_epoch": "2025-12-14T17:38:02.083776",
        "meta_mean_motion": 14.70655983,
        "meta_eccentricity": 0.00095601,
        "meta_inclination": 74.0125,
        "meta_ra_of_asc_node": 157.6564,
        "meta_arg_of_pericenter": 196.4199,
        "meta_mean_anomaly": 163.6664,
        "meta_ephemeris_type": 0,
        "meta_classification_type": "U",
        "meta_norad_cat_id": 36371,
        "meta_element_set_no": 999,
        "meta_rev_at_epoch": 71474,
        "meta_bstar": 0.001555296,
        "meta_mean_motion_dot": 9.456e-05,
        "meta_mean_motion_ddot": 0,
        "tle_line1": "1 36371U 93036AYY 25348.73474634  .00009456  00000+0  15553-2 0  9995",
        "tle_line2": "2 36371  74.0125 157.6564 0009560 196.4199 163.6664 14.70655983714747"
      },
      "geometry": {
        "type": "Point",
        "coordinates": [
          167.28459788088114,
          37.72602279907575
        ]
      }
    }
  ]
}